DTC TEST OBJECT A       
1 69472U 26128A   26165.14853715  .00026762  00000+0  38780-3 0  9992
2 69472  54.9942 319.0654 0008223 277.3328  82.6773 15.55702164   759
DTC TEST OBJECT B       
1 69473U 26128B   26165.14773861  .00029100  00000+0  41452-3 0  9995
2 69473  55.0033 319.0631 0008277 278.2450  81.7648 15.56120562   740
TJS-25                  
1 69474U 26129A   26162.48255804  .00007407  00000+0  19774-2 0  9990
2 69474  16.5302  30.5351 7751889 199.9639  91.9387  1.72502163    78
2026-132A               
1 69502U 26132A   26165.21808968  .00000611  00000+0  55184-4 0  9992
2 69502  97.6916 228.9326 0012225 282.3629  77.6225 14.99041749   331
2026-132B               
1 69503U 26132B   26165.21795772  .00000323  00000+0  31422-4 0  9990
2 69503  97.6948 228.9337 0012173 284.5722  75.4150 14.99132957   334
2026-132C               
1 69504U 26132C   26165.21705976  .00001416  00000+0  11929-3 0  9991
2 69504  97.6888 228.9312 0013694 296.1505  63.8309 14.99755651   337
2026-132D               
1 69505U 26132D   26164.41554847  .00001509  00000+0  12292-3 0  9999
2 69505  97.6871 228.1350 0011034 315.3023  44.7311 15.00977591   208
2026-132E               
1 69506U 26132E   26164.95816029  .00001978  00000+0  19337-3 0  9999
2 69506  97.6694 228.6931 0002823 327.8572  32.2476 14.93464297   293
2026-132F               
1 69507U 26132F   26164.41540372  .00003170  00000+0  25250-3 0  9993
2 69507  97.6869 228.1362 0010915 319.8335  40.2082 15.01040982   204
